IRIDIUM 64 [+]          
1 25287U 98021C   16173.31382369 -.00000002  00000-0 -79039-5 0  9994
2 25287  86.3952  14.8160 0002056  81.4832 278.6597 14.34216340953276
IRIDIUM 65 [+]          
1 25288U 98021D   16173.45969824  .00000001  00000-0 -67452-5 0  9991
2 25288  86.3951  14.6650 0002298  84.5541 275.5916 14.34215841953318
IRIDIUM 66 [+]          
1 25289U 98021E   16173.54147219  .00000021  00000-0  45954-6 0  9993
2 25289  86.3950  14.5372 0002287  89.5048 299.8285 14.34216486953328
IRIDIUM 67 [+]          
1 25290U 98021F   16173.54215963  .00000021  00000-0  49263-6 0  9994
2 25290  86.3952  14.6680 0002233  88.8922 271.2530 14.34216439953335
IRIDIUM 68 [+]          
1 25291U 98021G   16173.47873373  .00000001  00000-0 -65899-5 0  9993
2 25291  86.3954  14.8065 0002159  87.4084 272.7359 14.34216039953294
IRIDIUM 69 [-]          
1 25319U 98026A   16173.26342820  .00000137  00000-0  38156-4 0  9998
2 25319  86.3989  37.5644 0003473  57.2162 302.9371 14.38597330951142
IRIDIUM 71 [-]          
1 25320U 98026B   16173.56593588  .00000071  00000-0  16384-4 0  9998
2 25320  86.3970  33.5005 0004262  89.1359 271.0328 14.39010457951600
IRIDIUM 70 [+]          
1 25342U 98032A   16173.50934475  .00000023  00000-0  12845-5 0  9993
2 25342  86.3957  15.0182 0002344  90.8438 296.3855 14.34217391947405
IRIDIUM 72 [+]          
1 25343U 98032B   16173.56635037  .00000021  00000-0  30747-6 0  9992
2 25343  86.3952  14.6297 0002277  88.6844 298.1060 14.34216427947412
IRIDIUM 73 [-]          
1 25344U 98032C   16173.45498510  .00000145  00000-0  32942-4 0  9998
2 25344  86.4415 355.3845 0002246 107.9474 252.1975 14.48946669955318
IRIDIUM 74 [S]          
1 25345U 98032D   16173.54045221  .00000030  00000-0  29806-5 0  9995
2 25345  86.4463  14.9786 0002209  83.4607 308.7756 14.42949389950742
IRIDIUM 75 [+]          
1 25346U 98032E   16173.50296414  .00000022  00000-0  96872-6 0  9993
2 25346  86.3954  14.8959 0002239  88.8203 298.1747 14.34216449947970
IRIDIUM 3 [+]           
1 25431U 98048A   16173.29601193  .00000190  00000-0  60696-4 0  9994
2 25431  86.3966  46.5862 0002362  87.3883  32.2984 14.34216328933889
IRIDIUM 76 [+]          
1 25432U 98048B   16173.50954265  .00000157  00000-0  48901-4 0  9998
2 25432  86.3962  46.2628 0002211  89.4202 313.8993 14.34216156933904
IRIDIUM 82 [+]          
1 25467U 98051A   16173.47041009  .00000015  00000-0 -18333-5 0  9990
2 25467  86.3978 172.9404 0002429  81.6724 278.4747 14.34218076934910
IRIDIUM 81 [+]          
1 25468U 98051B   16173.46406967  .00000025  00000-0  17318-5 0  9990
2 25468  86.3968 172.5620 0002261  87.9122 272.2332 14.34218194931135
IRIDIUM 80 [+]          
1 25469U 98051C   16173.47740503 -.00000014  00000-0 -11998-4 0  9996
2 25469  86.3976 172.8259 0002087  84.4654  82.5681 14.34217871931134
IRIDIUM 77 [+]          
1 25471U 98051E   16173.48104102 -.00000013  00000-0 -11550-4 0  9992
2 25471  86.3967 172.4293 0002297  87.5675  65.5091 14.34217766936337
IRIDIUM 2 [-]           
1 25527U 98066A   16173.44929025  .00001295  00000-0  66785-4 0  9996
2 25527  85.5319 244.9495 0008728 350.5808   9.5266 15.15321380963224
IRIDIUM 86 [+]          
1 25528U 98066B   16173.40993236  .00000070  00000-0  17886-4 0  9996
2 25528  86.3964 140.6564 0002526  87.5526 272.5959 14.34217435927656
IRIDIUM 84 [+]          
1 25530U 98066D   16173.44164354  .00000076  00000-0  19935-4 0  9997
2 25530  86.3965 140.8019 0002250  85.8297 274.3156 14.34217510925298
IRIDIUM 83 [+]          
1 25531U 98066E   16173.54314466  .00000077  00000-0  20541-4 0  9996
2 25531  86.3969 140.8702 0002261  85.9497 274.1958 14.34216274922669
IRIDIUM 20 [+]          
1 25577U 98074A   16173.32358262  .00000166  00000-0  52126-4 0  9996
2 25577  86.3960  46.2669 0002251  85.3461 274.7992 14.34216089916712
IRIDIUM 11 [+]          
1 25578U 98074B   16173.55443443  .00000144  00000-0  44271-4 0  9996
2 25578  86.3962  46.3754 0002276  83.5302 322.3435 14.34216085925710
IRIDIUM 14 [S]          
1 25777U 99032A   16173.38608831 -.00000004  00000-0 -83786-5 0  9999
2 25777  86.3953  14.7806 0002298  85.6792 319.8988 14.34216417902963
IRIDIUM 21 [+]          
1 25778U 99032B   16173.48506492  .00000006  00000-0 -49497-5 0  9993
2 25778  86.3953  14.7624 0002036  87.3013 272.8416 14.34217875896412
IRIDIUM 91 [+]          
1 27372U 02005A   16173.26630575  .00000210  00000-0  67982-4 0  9999
2 27372  86.3988  78.6995 0002203  78.4758  33.9573 14.34218923759890
IRIDIUM 90 [S]          
1 27373U 02005B   16173.45001486  .00000112  00000-0  27581-4 0  9996
2 27373  86.4480 140.8794 0002437  90.2701 269.8779 14.42955858759338
IRIDIUM 94 [S]          
1 27374U 02005C   16173.57317943  .00000143  00000-0  43878-4 0  9999
2 27374  86.3963  46.4896 0002600 104.7437 299.6621 14.34216150764268
IRIDIUM 95 [+]          
1 27375U 02005D   16173.49189938  .00000205  00000-0  66267-4 0  9998
2 27375  86.3986  78.3876 0002237  86.8644 273.2808 14.34218839759212
IRIDIUM 96 [S]          
1 27376U 02005E   16173.33042185  .00000183  00000-0  58422-4 0  9993
2 27376  86.4006 109.9653 0001274 116.3526 243.7801 14.34217417764390
IRIDIUM 97 [+]          
1 27450U 02031A   16173.36848235  .00000158  00000-0  49480-4 0  9994
2 27450  86.3974 109.7580 0002202  80.3588 279.7856 14.34217127738515
IRIDIUM 98 [S]          
1 27451U 02031B   16173.45617692 -.00000009  00000-0 -10318-4 0  9991
2 27451  86.3969 173.0112 0002169  82.8606  72.8488 14.34218107739596
